{
  "name": "SATGUS",
  "line1": "1 62713U 25009DJ  25223.47070737  .00005349  00000+0  48271-3 0  9999",
  "line2": "2 62713  97.7322 303.0603 0003480  97.2870 262.8747 14.95931339 31179",
  "fetched_at": "2025-08-12T00:18:49.079243+00:00"
}